AMC-3                   
1 24936U 97050A   26073.41155749 -.00000259  00000+0  00000+0 0  9994
2 24936   7.9128  65.1555 0003556 304.3619 238.6640  1.00271097 51489
NSS-11                  
1 26554U 00059A   26073.60338260  .00000025  00000+0  00000+0 0  9997
2 26554   1.8806  82.5334 0003119 276.4631 206.4294  1.00272038 40346
AMC-6                   
1 26580U 00067A   26073.55106541  .00000088  00000+0  00000+0 0  9993
2 26580   0.0125 349.6878 0003179  12.3764 233.4188  1.00272650 92945
AMC-11                  
1 28252U 04017A   26073.54644868 -.00000050  00000+0  00000+0 0  9998
2 28252   0.0655  79.5748 0003240 286.8901 251.3121  1.00272105 79919
AMC-15                  
1 28446U 04041A   26073.54766203 -.00000090  00000+0  00000+0 0  9992
2 28446   0.0393 310.5573 0002318  40.4071 273.3068  1.00272655 78355
NSS-10                  
1 28526U 05003A   26073.41840419 -.00000249  00000+0  00000+0 0  9994
2 28526   6.2111  71.5931 0003167 282.6384 290.9760  1.00272666 52204
ASTRA 1KR               
1 29055U 06012A   26073.57227546  .00000118  00000+0  00000+0 0  9994
2 29055   0.2282  82.0059 0003179 268.2497  46.9327  1.00273870 44747
ASTRA 1L                
1 31306U 07016A   26073.42100420 -.00000185  00000+0  00000+0 0  9991
2 31306   1.0752  82.3070 0003600 293.7914 282.9888  1.00269423 44037
ASTRA 4A                
1 32299U 07057A   26073.56932879  .00000032  00000+0  00000+0 0  9994
2 32299   0.0332 292.6918 0002425  71.9781  17.2732  1.00273101 50695
ASTRA 1M                
1 33436U 08057A   26073.57227546  .00000119  00000+0  00000+0 0  9994
2 33436   0.0559  68.9429 0001588   3.9007 324.5328  1.00273188 44789
NSS-9                   
1 33749U 09008A   26073.62336355  .00000071  00000+0  00000+0 0  9990
2 33749   1.0155  83.5769 0002078 267.7846 228.3461  1.00272790 62579
SES-7 (PROTOSTAR 2)     
1 34941U 09027A   26073.58995553 -.00000346  00000+0  00000+0 0  9998
2 34941   0.0358  79.1853 0001572 239.8586 173.7970  1.00271504 61683
NSS-12                  
1 36032U 09058A   26073.57981550  .00000071  00000+0  00000+0 0  9990
2 36032   0.0423   1.4154 0004900 338.4500  98.0548  1.00271727 59966
SES-1                   
1 36516U 10016A   26072.47880455 -.00000114  00000+0  00000+0 0  9992
2 36516   0.0522 285.6162 0002430  70.4068 246.4393  1.00269841 58078
ASTRA 3B                
1 36581U 10021A   26073.57314214  .00000136  00000+0  00000+0 0  9990
2 36581   1.2245  84.7622 0003283 284.1818  33.0720  1.00269164 57912
SES-3                   
1 37748U 11035A   26073.54809536 -.00000102  00000+0  00000+0 0  9999
2 37748   1.0803  84.1640 0003565 276.8679 265.4359  1.00272143 53642
ASTRA 1N                
1 37775U 11041A   26073.57227546  .00000119  00000+0  00000+0 0  9991
2 37775   0.0818  37.7358 0004692 350.1404   9.5086  1.00273329 43573
