[{"OBJECT_NAME":"AMC-3","OBJECT_ID":"1997-050A","EPOCH":"2026-03-14T09:52:38.567136","MEAN_MOTION":1.00271097,"ECCENTRICITY":0.00035561,"INCLINATION":7.9128,"RA_OF_ASC_NODE":65.1555,"ARG_OF_PERICENTER":304.3619,"MEAN_ANOMALY":238.664,"EPHEMERIS_TYPE":0,"CLASSIFICATION_TYPE":"U","NORAD_CAT_ID":24936,"ELEMENT_SET_NO":999,"REV_AT_EPOCH":5148,"BSTAR":0,"MEAN_MOTION_DOT":-2.59e-6,"MEAN_MOTION_DDOT":0},{"OBJECT_NAME":"NSS-11","OBJECT_ID":"2000-059A","EPOCH":"2026-03-14T14:28:52.256640","MEAN_MOTION":1.00272038,"ECCENTRICITY":0.00031194,"INCLINATION":1.8806,"RA_OF_ASC_NODE":82.5334,"ARG_OF_PERICENTER":276.4631,"MEAN_ANOMALY":206.4294,"EPHEMERIS_TYPE":0,"CLASSIFICATION_TYPE":"U","NORAD_CAT_ID":26554,"ELEMENT_SET_NO":999,"REV_AT_EPOCH":4034,"BSTAR":0,"MEAN_MOTION_DOT":2.5e-7,"MEAN_MOTION_DDOT":0},{"OBJECT_NAME":"AMC-6","OBJECT_ID":"2000-067A","EPOCH":"2026-03-14T13:13:32.051424","MEAN_MOTION":1.0027265,"ECCENTRICITY":0.00031792,"INCLINATION":0.0125,"RA_OF_ASC_NODE":349.6878,"ARG_OF_PERICENTER":12.3764,"MEAN_ANOMALY":233.4188,"EPHEMERIS_TYPE":0,"CLASSIFICATION_TYPE":"U","NORAD_CAT_ID":26580,"ELEMENT_SET_NO":999,"REV_AT_EPOCH":9294,"BSTAR":0,"MEAN_MOTION_DOT":8.8e-7,"MEAN_MOTION_DDOT":0},{"OBJECT_NAME":"AMC-11","OBJECT_ID":"2004-017A","EPOCH":"2026-03-14T13:06:53.165952","MEAN_MOTION":1.00272105,"ECCENTRICITY":0.00032402,"INCLINATION":0.0655,"RA_OF_ASC_NODE":79.5748,"ARG_OF_PERICENTER":286.8901,"MEAN_ANOMALY":251.3121,"EPHEMERIS_TYPE":0,"CLASSIFICATION_TYPE":"U","NORAD_CAT_ID":28252,"ELEMENT_SET_NO":999,"REV_AT_EPOCH":7991,"BSTAR":0,"MEAN_MOTION_DOT":-5.0e-7,"MEAN_MOTION_DDOT":0},{"OBJECT_NAME":"AMC-15","OBJECT_ID":"2004-041A","EPOCH":"2026-03-14T13:08:37.999392","MEAN_MOTION":1.00272655,"ECCENTRICITY":0.00023188,"INCLINATION":0.0393,"RA_OF_ASC_NODE":310.5573,"ARG_OF_PERICENTER":40.4071,"MEAN_ANOMALY":273.3068,"EPHEMERIS_TYPE":0,"CLASSIFICATION_TYPE":"U","NORAD_CAT_ID":28446,"ELEMENT_SET_NO":999,"REV_AT_EPOCH":7835,"BSTAR":0,"MEAN_MOTION_DOT":-9.0e-7,"MEAN_MOTION_DDOT":0},{"OBJECT_NAME":"NSS-10","OBJECT_ID":"2005-003A","EPOCH":"2026-03-14T10:02:30.122016","MEAN_MOTION":1.00272666,"ECCENTRICITY":0.00031676,"INCLINATION":6.2111,"RA_OF_ASC_NODE":71.5931,"ARG_OF_PERICENTER":282.6384,"MEAN_ANOMALY":290.976,"EPHEMERIS_TYPE":0,"CLASSIFICATION_TYPE":"U","NORAD_CAT_ID":28526,"ELEMENT_SET_NO":999,"REV_AT_EPOCH":5220,"BSTAR":0,"MEAN_MOTION_DOT":-2.49e-6,"MEAN_MOTION_DDOT":0},{"OBJECT_NAME":"ASTRA 1KR","OBJECT_ID":"2006-012A","EPOCH":"2026-03-14T13:44:04.599744","MEAN_MOTION":1.0027387,"ECCENTRICITY":0.00031792,"INCLINATION":0.2282,"RA_OF_ASC_NODE":82.0059,"ARG_OF_PERICENTER":268.2497,"MEAN_ANOMALY":46.9327,"EPHEMERIS_TYPE":0,"CLASSIFICATION_TYPE":"U","NORAD_CAT_ID":29055,"ELEMENT_SET_NO":999,"REV_AT_EPOCH":4474,"BSTAR":0,"MEAN_MOTION_DOT":1.18e-6,"MEAN_MOTION_DDOT":0},{"OBJECT_NAME":"ASTRA 1L","OBJECT_ID":"2007-016A","EPOCH":"2026-03-14T10:06:14.762880","MEAN_MOTION":1.00269423,"ECCENTRICITY":0.00036002,"INCLINATION":1.0752,"RA_OF_ASC_NODE":82.307,"ARG_OF_PERICENTER":293.7914,"MEAN_ANOMALY":282.9888,"EPHEMERIS_TYPE":0,"CLASSIFICATION_TYPE":"U","NORAD_CAT_ID":31306,"ELEMENT_SET_NO":999,"REV_AT_EPOCH":4403,"BSTAR":0,"MEAN_MOTION_DOT":-1.85e-6,"MEAN_MOTION_DDOT":0},{"OBJECT_NAME":"ASTRA 4A","OBJECT_ID":"2007-057A","EPOCH":"2026-03-14T13:39:50.007456","MEAN_MOTION":1.00273101,"ECCENTRICITY":0.0002425,"INCLINATION":0.0332,"RA_OF_ASC_NODE":292.6918,"ARG_OF_PERICENTER":71.9781,"MEAN_ANOMALY":17.2732,"EPHEMERIS_TYPE":0,"CLASSIFICATION_TYPE":"U","NORAD_CAT_ID":32299,"ELEMENT_SET_NO":999,"REV_AT_EPOCH":5069,"BSTAR":0,"MEAN_MOTION_DOT":3.2e-7,"MEAN_MOTION_DDOT":0},{"OBJECT_NAME":"ASTRA 1M","OBJECT_ID":"2008-057A","EPOCH":"2026-03-14T13:44:04.599744","MEAN_MOTION":1.00273188,"ECCENTRICITY":0.00015886,"INCLINATION":0.0559,"RA_OF_ASC_NODE":68.9429,"ARG_OF_PERICENTER":3.9007,"MEAN_ANOMALY":324.5328,"EPHEMERIS_TYPE":0,"CLASSIFICATION_TYPE":"U","NORAD_CAT_ID":33436,"ELEMENT_SET_NO":999,"REV_AT_EPOCH":4478,"BSTAR":0,"MEAN_MOTION_DOT":1.19e-6,"MEAN_MOTION_DDOT":0},{"OBJECT_NAME":"NSS-9","OBJECT_ID":"2009-008A","EPOCH":"2026-03-14T14:57:38.610720","MEAN_MOTION":1.0027279,"ECCENTRICITY":0.00020782,"INCLINATION":1.0155,"RA_OF_ASC_NODE":83.5769,"ARG_OF_PERICENTER":267.7846,"MEAN_ANOMALY":228.3461,"EPHEMERIS_TYPE":0,"CLASSIFICATION_TYPE":"U","NORAD_CAT_ID":33749,"ELEMENT_SET_NO":999,"REV_AT_EPOCH":6257,"BSTAR":0,"MEAN_MOTION_DOT":7.1e-7,"MEAN_MOTION_DDOT":0},{"OBJECT_NAME":"SES-7 (PROTOSTAR 2)","OBJECT_ID":"2009-027A","EPOCH":"2026-03-14T14:09:32.157792","MEAN_MOTION":1.00271504,"ECCENTRICITY":0.0001572,"INCLINATION":0.0358,"RA_OF_ASC_NODE":79.1853,"ARG_OF_PERICENTER":239.8586,"MEAN_ANOMALY":173.797,"EPHEMERIS_TYPE":0,"CLASSIFICATION_TYPE":"U","NORAD_CAT_ID":34941,"ELEMENT_SET_NO":999,"REV_AT_EPOCH":6168,"BSTAR":0,"MEAN_MOTION_DOT":-3.46e-6,"MEAN_MOTION_DDOT":0},{"OBJECT_NAME":"NSS-12","OBJECT_ID":"2009-058A","EPOCH":"2026-03-14T13:54:56.059200","MEAN_MOTION":1.00271727,"ECCENTRICITY":0.00049002,"INCLINATION":0.0423,"RA_OF_ASC_NODE":1.4154,"ARG_OF_PERICENTER":338.45,"MEAN_ANOMALY":98.0548,"EPHEMERIS_TYPE":0,"CLASSIFICATION_TYPE":"U","NORAD_CAT_ID":36032,"ELEMENT_SET_NO":999,"REV_AT_EPOCH":5996,"BSTAR":0,"MEAN_MOTION_DOT":7.1e-7,"MEAN_MOTION_DDOT":0},{"OBJECT_NAME":"SES-1","OBJECT_ID":"2010-016A","EPOCH":"2026-03-13T11:29:28.713120","MEAN_MOTION":1.00269841,"ECCENTRICITY":0.00024306,"INCLINATION":0.0522,"RA_OF_ASC_NODE":285.6162,"ARG_OF_PERICENTER":70.4068,"MEAN_ANOMALY":246.4393,"EPHEMERIS_TYPE":0,"CLASSIFICATION_TYPE":"U","NORAD_CAT_ID":36516,"ELEMENT_SET_NO":999,"REV_AT_EPOCH":5807,"BSTAR":0,"MEAN_MOTION_DOT":-1.14e-6,"MEAN_MOTION_DDOT":0},{"OBJECT_NAME":"ASTRA 3B","OBJECT_ID":"2010-021A","EPOCH":"2026-03-14T13:45:19.480896","MEAN_MOTION":1.00269164,"ECCENTRICITY":0.00032836,"INCLINATION":1.2245,"RA_OF_ASC_NODE":84.7622,"ARG_OF_PERICENTER":284.1818,"MEAN_ANOMALY":33.072,"EPHEMERIS_TYPE":0,"CLASSIFICATION_TYPE":"U","NORAD_CAT_ID":36581,"ELEMENT_SET_NO":999,"REV_AT_EPOCH":5791,"BSTAR":0,"MEAN_MOTION_DOT":1.36e-6,"MEAN_MOTION_DDOT":0},{"OBJECT_NAME":"SES-3","OBJECT_ID":"2011-035A","EPOCH":"2026-03-14T13:09:15.439104","MEAN_MOTION":1.00272143,"ECCENTRICITY":0.00035654,"INCLINATION":1.0803,"RA_OF_ASC_NODE":84.164,"ARG_OF_PERICENTER":276.8679,"MEAN_ANOMALY":265.4359,"EPHEMERIS_TYPE":0,"CLASSIFICATION_TYPE":"U","NORAD_CAT_ID":37748,"ELEMENT_SET_NO":999,"REV_AT_EPOCH":5364,"BSTAR":0,"MEAN_MOTION_DOT":-1.02e-6,"MEAN_MOTION_DDOT":0},{"OBJECT_NAME":"ASTRA 1N","OBJECT_ID":"2011-041A","EPOCH":"2026-03-14T13:44:04.599744","MEAN_MOTION":1.00273329,"ECCENTRICITY":0.00046921,"INCLINATION":0.0818,"RA_OF_ASC_NODE":37.7358,"ARG_OF_PERICENTER":350.1404,"MEAN_ANOMALY":9.5086,"EPHEMERIS_TYPE":0,"CLASSIFICATION_TYPE":"U","NORAD_CAT_ID":37775,"ELEMENT_SET_NO":999,"REV_AT_EPOCH":4357,"BSTAR":0,"MEAN_MOTION_DOT":1.19e-6,"MEAN_MOTION_DDOT":0}]
